NORAD_CAT_ID,OBJECT_NAME,OBJECT_TYPE,EPOCH,MEAN_MOTION,ECCENTRICITY,INCLINATION,RA_OF_ASC_NODE,ARG_OF_PERICENTER,MEAN_ANOMALY,BSTAR,MEAN_MOTION_DOT,MEAN_MOTION_DDOT,TLE_LINE0,TLE_LINE1,TLE_LINE2,SEMIMAJOR_AXIS,PERIOD,APOGEE,PERIGEE,DECAYED
53709.0,STARLINK-4685,PAYLOAD,2023-05-07 12:54:19,15.08843211,7.08e-05,53.2148,224.7702,145.4735,214.6303,0.00013585,1.875e-05,0.0,0 STARLINK-4685,1 53709U 22107K   23127.53772533  .00001875  00000-0  13585-3 0  9992,2 53709  53.2148 224.7702 0000708 145.4735 214.6303 15.08843211 37469,6917.871,95.437,540.225,539.246,0.0
53709.0,STARLINK-4685,PAYLOAD,2023-05-07 19:15:51,15.08857609,0.0001314,53.2133,223.5802,163.7873,196.3162,0.00038023,5.772e-05,0.0,0 STARLINK-4685,1 53709U 22107K   23127.80267689  .00005772  00000-0  38023-3 0  9997,2 53709  53.2133 223.5802 0001314 163.7873 196.3162 15.08857609 37501,6917.827,95.436,540.601,538.783,0.0
53709.0,STARLINK-4685,PAYLOAD,2023-05-08 12:45:05,15.08852153,5.79e-05,53.2149,220.3116,74.9105,285.1951,0.00019694,2.849e-05,0.0,0 STARLINK-4685,1 53709U 22107K   23128.53131832  .00002849  00000-0  19694-3 0  9993,2 53709  53.2149 220.3116 0000579  74.9105 285.1951 15.08852153 37618,6917.843,95.437,540.109,539.308,0.0
53709.0,STARLINK-4685,PAYLOAD,2023-05-09 11:00:30,15.08836229,5.94e-05,53.2155,216.1477,133.4466,226.6575,5.462e-05,5.82e-06,0.0,0 STARLINK-4685,1 53709U 22107K   23129.45868562  .00000582  00000-0  54620-4 0  9993,2 53709  53.2155 216.1477 0000594 133.4466 226.6575 15.08836229 38198,6917.892,95.438,540.168,539.346,0.0
53709.0,STARLINK-4685,PAYLOAD,2023-05-10 12:26:40,15.08840017,7.07e-05,53.2161,211.3904,89.3969,270.7104,-3.5486e-05,-8.52e-06,0.0,0 STARLINK-4685,1 53709U 22107K   23130.51852658 -.00000852  00000-0 -35486-4 0  9992,2 53709  53.2161 211.3904 0000707  89.3969 270.7104 15.08840017 38356,6917.88,95.438,540.234,539.256,0.0
53709.0,STARLINK-4685,PAYLOAD,2023-05-10 14:02:03,15.08843592,6.87e-05,53.2161,211.0939,90.0835,270.0236,1.5698e-05,-3.8e-07,0.0,0 STARLINK-4685,1 53709U 22107K   23130.58476475 -.00000038  00000-0  15698-4 0  9996,2 53709  53.2161 211.0939 0000687  90.0835 270.0236 15.08843592 37921,6917.869,95.437,540.21,539.259,0.0
53709.0,STARLINK-4685,PAYLOAD,2023-05-11 10:42:04,15.08842151,6.42e-05,53.2154,207.2258,106.0867,254.0196,0.00022336,3.269e-05,0.0,0 STARLINK-4685,1 53709U 22107K   23131.44588821  .00003269  00000-0  22336-3 0  9995,2 53709  53.2154 207.2258 0000642 106.0867 254.0196 15.08842151 38498,6917.874,95.437,540.183,539.295,0.0
53709.0,STARLINK-4685,PAYLOAD,2023-05-11 12:17:27,15.08846642,7.17e-05,53.2157,206.9297,108.5427,251.5643,0.0002431,3.584e-05,0.0,0 STARLINK-4685,1 53709U 22107K   23131.51212594  .00003584  00000-0  24310-3 0  9998,2 53709  53.2157 206.9297 0000717 108.5427 251.5643 15.08846642 38502,6917.86,95.437,540.221,539.229,0.0
53709.0,STARLINK-4685,PAYLOAD,2023-05-11 21:49:46,15.08839523,7.05e-05,53.216,205.1456,89.7317,270.3756,0.00012344,1.677e-05,0.0,0 STARLINK-4685,1 53709U 22107K   23131.90956996  .00001677  00000-0  12344-3 0  9997,2 53709  53.2160 205.1456 0000705  89.7317 270.3756 15.08839523 38121,6917.882,95.438,540.235,539.259,0.0
53709.0,STARLINK-4685,PAYLOAD,2023-05-12 08:57:29,15.08833971,9.83e-05,53.2164,203.0666,103.5932,256.5169,9.7056e-06,-1.33e-06,0.0,0 STARLINK-4685,1 53709U 22107K   23132.37325478 -.00000133  00000-0  97056-5 0  9996,2 53709  53.2164 203.0666 0000983 103.5932 256.5169 15.08833971 38193,6917.899,95.438,540.444,539.084,0.0
53709.0,STARLINK-4685,PAYLOAD,2023-05-13 11:59:01,15.0885007,8.27e-05,53.2155,198.0179,127.712,232.3947,8.7948e-05,1.113e-05,0.0,0 STARLINK-4685,1 53709U 22107K   23133.49932626  .00001113  00000-0  87948-4 0  9995,2 53709  53.2155 198.0179 0000827 127.7120 232.3947 15.08850070 38363,6917.85,95.437,540.287,539.143,0.0
53709.0,STARLINK-4685,PAYLOAD,2023-05-13 21:31:20,15.08844154,8.1e-05,53.2157,196.2293,65.1681,294.9395,7.5099e-05,9.08e-06,0.0,0 STARLINK-4685,1 53709U 22107K   23133.89677025  .00000908  00000-0  75099-4 0  9993,2 53709  53.2157 196.2293 0000810  65.1681 294.9395 15.08844154 38863,6917.868,95.437,540.293,539.172,0.0
53709.0,STARLINK-4685,PAYLOAD,2023-05-14 10:14:26,15.08837684,8.04e-05,53.2154,193.8456,80.9761,279.1322,9.4326e-05,1.214e-05,0.0,0 STARLINK-4685,1 53709U 22107K   23134.42669552  .00001214  00000-0  94326-4 0  9994,2 53709  53.2154 193.8456 0000804  80.9761 279.1322 15.08837684 38507,6917.887,95.438,540.309,539.196,0.0
53709.0,STARLINK-4685,PAYLOAD,2023-05-14 21:22:08,15.0884009,8.18e-05,53.2146,191.7643,83.7533,276.3552,0.00019601,2.833e-05,0.0,0 STARLINK-4685,1 53709U 22107K   23134.89037579  .00002833  00000-0  19601-3 0  9993,2 53709  53.2146 191.7643 0000818  83.7533 276.3552 15.08840090 39012,6917.88,95.438,540.311,539.179,0.0
53709.0,STARLINK-4685,PAYLOAD,2023-05-15 10:05:13,15.08843864,8.28e-05,53.2148,189.3854,83.0511,277.0575,0.00049662,7.626e-05,0.0,0 STARLINK-4685,1 53709U 22107K   23135.42029711  .00007626  00000-0  49662-3 0  9997,2 53709  53.2148 189.3854 0000828  83.0511 277.0575 15.08843864 39094,6917.869,95.437,540.306,539.161,0.0
53709.0,STARLINK-4685,PAYLOAD,2023-05-16 06:45:14,15.08840972,8.56e-05,53.215,185.5201,76.2914,283.8173,0.00019793,2.864e-05,0.0,0 STARLINK-4685,1 53709U 22107K   23136.28141869  .00002864  00000-0  19793-3 0  9992,2 53709  53.2150 185.5201 0000856  76.2914 283.8173 15.08840972 38784,6917.877,95.437,540.335,539.15,0.0
53709.0,STARLINK-4685,PAYLOAD,2023-05-16 09:56:00,15.08841343,8.33e-05,53.2147,184.9249,81.743,278.3657,0.00017352,2.475e-05,0.0,0 STARLINK-4685,1 53709U 22107K   23136.41389848  .00002475  00000-0  17352-3 0  9995,2 53709  53.2147 184.9249 0000833  81.7430 278.3657 15.08841343 39245,6917.876,95.437,540.318,539.165,0.0
53709.0,STARLINK-4685,PAYLOAD,2023-05-17 08:11:24,15.08842799,8.31e-05,53.2146,180.7617,81.9916,278.1171,0.00011742,1.582e-05,0.0,0 STARLINK-4685,1 53709U 22107K   23137.34125659  .00001582  00000-0  11742-3 0  9991,2 53709  53.2146 180.7617 0000831  81.9916 278.1171 15.08842799 38947,6917.872,95.437,540.312,539.162,0.0
53709.0,STARLINK-4685,PAYLOAD,2023-05-17 19:19:06,15.08839281,8.41e-05,53.2144,178.68,79.0348,281.0739,3.7221e-05,3.05e-06,0.0,0 STARLINK-4685,1 53709U 22107K   23137.80493797  .00000305  00000-0  37221-4 0  9996,2 53709  53.2144 178.6800 0000841  79.0348 281.0739 15.08839281 39455,6917.883,95.438,540.329,539.166,0.0
53709.0,STARLINK-4685,PAYLOAD,2023-05-18 03:16:02,15.08832925,9.59e-05,53.2153,177.1948,93.2617,266.8485,-4.1142e-06,-3.53e-06,0.0,0 STARLINK-4685,1 53709U 22107K   23138.13614207 -.00000353  00000-0 -41142-5 0  9997,2 53709  53.2153 177.1948 0000959  93.2617 266.8485 15.08832925 39063,6917.902,95.438,540.43,539.104,0.0
53709.0,STARLINK-4685,PAYLOAD,2023-05-18 12:48:21,15.08832472,8.96e-05,53.2161,175.4096,92.5116,267.5979,2.6766e-05,1.38e-06,0.0,0 STARLINK-4685,1 53709U 22107K   23138.53358606  .00000138  00000-0  26766-4 0  9992,2 53709  53.2161 175.4096 0000896  92.5116 267.5979 15.08832472 39561,6917.903,95.438,540.388,539.149,0.0
53709.0,STARLINK-4685,PAYLOAD,2023-05-18 19:09:54,15.08834628,8.99e-05,53.2162,174.2204,92.2806,267.8289,2.3954e-05,9.4e-07,0.0,0 STARLINK-4685,1 53709U 22107K   23138.79854543  .00000094  00000-0  23954-4 0  9998,2 53709  53.2162 174.2204 0000899  92.2806 267.8289 15.08834628 39603,6917.897,95.438,540.384,539.14,0.0
53709.0,STARLINK-4685,PAYLOAD,2023-05-19 09:28:22,15.08839964,8.73e-05,53.2161,171.5435,90.2617,269.8475,7.0104e-05,8.28e-06,0.0,0 STARLINK-4685,1 53709U 22107K   23139.39470170  .00000828  00000-0  70104-4 0  9999,2 53709  53.2161 171.5435 0000873  90.2617 269.8475 15.08839964 39256,6917.88,95.438,540.349,539.142,0.0
53709.0,STARLINK-4685,PAYLOAD,2023-05-19 19:00:41,15.08838769,8.8e-05,53.2163,169.7593,89.4033,270.706,7.1968e-05,8.58e-06,0.0,0 STARLINK-4685,1 53709U 22107K   23139.79214276  .00000858  00000-0  71968-4 0  9998,2 53709  53.2163 169.7593 0000880  89.4033 270.7060 15.08838769 39750,6917.884,95.438,540.358,539.14,0.0
53709.0,STARLINK-4685,PAYLOAD,2023-05-20 18:51:27,15.08845705,8.51e-05,53.2162,165.2986,85.4262,274.6827,0.00014967,2.095e-05,0.0,0 STARLINK-4685,1 53709U 22107K   23140.78573830  .00002095  00000-0  14967-3 0  9993,2 53709  53.2162 165.2986 0000851  85.4262 274.6827 15.08845705 39464,6917.863,95.437,540.317,539.139,0.0
53709.0,STARLINK-4685,PAYLOAD,2023-05-21 09:09:55,15.08849409,9.17e-05,53.2151,162.6222,83.3605,276.7491,0.00013681,1.891e-05,0.0,0 STARLINK-4685,1 53709U 22107K   23141.38189537  .00001891  00000-0  13681-3 0  9992,2 53709  53.2151 162.6222 0000917  83.3605 276.7491 15.08849409 39990,6917.852,95.437,540.351,539.082,0.0
53709.0,STARLINK-4685,PAYLOAD,2023-05-21 18:42:14,15.0884279,9.61e-05,53.2151,160.8385,80.9333,279.1768,4.6768e-05,4.57e-06,0.0,0 STARLINK-4685,1 53709U 22107K   23141.77933816  .00000457  00000-0  46768-4 0  9992,2 53709  53.2151 160.8385 0000961  80.9333 279.1768 15.08842790 39619,6917.872,95.437,540.402,539.072,0.0
53709.0,STARLINK-4685,PAYLOAD,2023-05-22 10:36:06,15.08839127,0.0001048,53.2165,157.8653,82.2229,277.8882,-2.4343e-07,-2.92e-06,0.0,0 STARLINK-4685,1 53709U 22107K   23142.44174417 -.00000292  00000-0 -24343-6 0  9997,2 53709  53.2165 157.8653 0001048  82.2229 277.8882 15.08839127 39717,6917.883,95.438,540.473,539.023,0.0
53709.0,STARLINK-4685,PAYLOAD,2023-05-22 18:33:02,15.08839478,0.0001056,53.2166,156.3785,81.532,278.5791,-4.3124e-06,-3.56e-06,0.0,0 STARLINK-4685,1 53709U 22107K   23142.77294406 -.00000356  00000-0 -43124-5 0  9992,2 53709  53.2166 156.3785 0001056  81.5320 278.5791 15.08839478 40203,6917.882,95.438,540.478,539.016,0.0
53709.0,STARLINK-4685,PAYLOAD,2023-05-23 10:26:53,15.08840783,9.33e-05,53.2156,153.4037,92.9462,267.1637,1.8842e-05,1.2e-07,0.0,0 STARLINK-4685,1 53709U 22107K   23143.43534122  .00000012  00000-0  18842-4 0  9993,2 53709  53.2156 153.4037 0000933  92.9462 267.1637 15.08840783 40301,6917.878,95.438,540.388,539.098,0.0
